<?xml version="1.0" encoding="UTF-8"?>
<kml xmlns="http://www.opengis.net/kml/2.2" xmlns:gx="http://www.google.com/kml/ext/2.2" xmlns:kml="http://www.opengis.net/kml/2.2" xmlns:atom="http://www.w3.org/2005/Atom">
<Document id="KmlFile">
	<gx:CascadingStyle kml:id="__managed_style_0D19FADD39424EC82650_highlight">
		<Style>
			<IconStyle>
				<scale>1.2</scale>
				<Icon>
					<href>https://earth.google.com/earth/document/icon?color=1976d2&amp;id=2000&amp;scale=4</href>
				</Icon>
				<hotSpot x="64" y="128" xunits="pixels" yunits="insetPixels"/>
			</IconStyle>
			<LabelStyle>
			</LabelStyle>
			<LineStyle>
				<color>ff2dc0fb</color>
				<width>6</width>
			</LineStyle>
			<PolyStyle>
				<color>40ffffff</color>
			</PolyStyle>
			<BalloonStyle>
				<displayMode>hide</displayMode>
			</BalloonStyle>
		</Style>
	</gx:CascadingStyle>
	<gx:CascadingStyle kml:id="__managed_style_0D19FADD39424EC82650_normal">
		<Style>
			<IconStyle>
				<Icon>
					<href>https://earth.google.com/earth/document/icon?color=1976d2&amp;id=2000&amp;scale=4</href>
				</Icon>
				<hotSpot x="64" y="128" xunits="pixels" yunits="insetPixels"/>
			</IconStyle>
			<LabelStyle>
			</LabelStyle>
			<LineStyle>
				<color>ff2dc0fb</color>
				<width>4</width>
			</LineStyle>
			<PolyStyle>
				<color>40ffffff</color>
			</PolyStyle>
			<BalloonStyle>
				<displayMode>hide</displayMode>
			</BalloonStyle>
		</Style>
	</gx:CascadingStyle>
	<StyleMap id="__managed_style_0D19FADD39424EC82650">
		<Pair>
			<key>normal</key>
			<styleUrl>#__managed_style_0D19FADD39424EC82650_normal</styleUrl>
		</Pair>
		<Pair>
			<key>highlight</key>
			<styleUrl>#__managed_style_0D19FADD39424EC82650_highlight</styleUrl>
		</Pair>
	</StyleMap>
	<Placemark id="0D98BFB433424EC82629">
		<name>Combi amarilla</name>
		<LookAt>
			<longitude>-102.2337420494333</longitude>
			<latitude>17.9711389489069</latitude>
			<altitude>25.70881059887558</altitude>
			<heading>354.8852136173294</heading>
			<tilt>0</tilt>
			<gx:fovy>35</gx:fovy>
			<range>9762.997455195291</range>
			<altitudeMode>absolute</altitudeMode>
		</LookAt>
		<styleUrl>#__managed_style_0D19FADD39424EC82650</styleUrl>
		<LineString>
			<coordinates>
				-102.2327010772308,17.97392691402825,0 -102.2267110963145,17.97378014560556,0 -102.2284086534481,17.9706874055723,0 -102.2265608063245,17.96995640300164,0 -102.2239099928673,17.97186034782874,0 -102.2213286467317,17.96860519692807,0 -102.2199799261311,17.96944541310974,0 -102.2199025143394,17.96962897107902,0 -102.219764430978,17.97078568391428,0 -102.2196744565554,17.97106104608412,0 -102.2193914611211,17.97140433818909,0 -102.2187540194961,17.97212997251431,0 -102.2181184422836,17.97288806403755,0 -102.2173856013323,17.97339209430527,0 -102.2145866383902,17.9753073810714,0 -102.2118841544235,17.97724851354725,0 -102.2116775760573,17.97700303443455,0 -102.2118416156862,17.97687784403248,0 -102.2122754958813,17.97392496221619,0 -102.2123148650503,17.97368829152856,0 -102.2122248293462,17.97337397086875,0 -102.2119736655842,17.97304198973644,0 -102.2118598930074,17.97281661027538,0 -102.2119946086952,17.97165544448325,0 -102.2120399274394,17.97068447366615,0 -102.2119983611086,17.97040767795049,0 -102.2118937751574,17.97031677944105,0 -102.2120450904897,17.9700787209786,0 -102.2121137036075,17.96990490072617,0 -102.2122078404101,17.9696624209521,0 -102.2123250501083,17.96929871802099,0 -102.2123825794662,17.96907674031726,0 -102.2062468137517,17.96740766091273,0 -102.2035854739256,17.9666331051123,0 -102.202725389917,17.96581792899232,0 -102.2028650155472,17.96553650884909,0 -102.2029047727599,17.96538918694525,0 -102.2029276717494,17.96524259700874,0 -102.2029909664663,17.96499997810274,0 -102.2030907192884,17.96484596746193,0 -102.2033604895791,17.96466390139635,0 -102.203480188911,17.96458833881569,0 -102.203609114992,17.96450666087741,0 -102.2036619360296,17.9644117424162,0 -102.2037563673961,17.96430373537486,0 -102.2038273592991,17.96417695869984,0 -102.2042247251567,17.96313351651185,0 -102.2047016092409,17.96190351881507,0 -102.2047075152534,17.96158798444357,0 -102.2046421136765,17.96146154368608,0 -102.2045485636431,17.96142929082819,0 -102.204321827846,17.96141697493276,0 -102.2040096421544,17.96143101572197,0 -102.2030907790251,17.96145060987211,0 -102.2010385802799,17.96145531451143,0 -102.2004301777817,17.96139750941944,0 -102.1998766620444,17.96180348800895,0 -102.199791468407,17.96173285471212,0 -102.1987065538878,17.96030055169205,0 -102.1980188452401,17.95942076417857,0 -102.1971753683844,17.95834343535674,0 -102.1966735509492,17.95768010509814,0 -102.1965615968028,17.95775180476725,0 -102.1964268699535,17.95756346839039,0 -102.1961599339825,17.95723672185847,0 -102.195268232445,17.95604636842534,0 -102.1945596711547,17.955123663089,0 -102.1938661379833,17.95422324088451,0 -102.1931373721767,17.95323933649513,0 -102.1930818933786,17.95317218615685,0 -102.1928317232334,17.95331022862398,0 -102.1925300730405,17.95348113461954,0 -102.1921828584679,17.95366661668275,0 -102.1920251895591,17.95376216332708,0 -102.1916511697254,17.95507387173935,0 -102.19102327539,17.9571908043829,0 -102.1903432679206,17.95951774392209,0 -102.1905758861622,17.95946091497592,0 -102.1906745889364,17.95939965922182,0 -102.19073439957,17.95936054709923,0 -102.1909547639705,17.95964990988155,0 -102.191535505255,17.96043278848585,0 -102.1927272304245,17.9619675939639,0 -102.1938352633351,17.96343021939716,0 -102.1958947306058,17.9637576235177,0 -102.1969339818133,17.96387072629874,0 -102.1973524407081,17.96373574104669,0 -102.1976734419084,17.96350024953471,0 -102.1978696217005,17.96333408830037,0 -102.1979640420994,17.96349865700877,0 -102.1979938287968,17.96384829279218,0 -102.1979614684528,17.96455311652529,0 -102.1979384164463,17.96494069924344,0 -102.1984735384044,17.96528766761958,0 -102.1987344883417,17.9654454027929,0 -102.1990943861508,17.96554530588176,0 -102.1992676440662,17.9655329730163,0 -102.1995384241554,17.96547147589102,0 -102.1998651356774,17.96535502751414,0 -102.2003618746115,17.96520751771137,0 -102.2008637506468,17.9651878684397,0 -102.2013893376904,17.96526857582061,0 -102.2015522467627,17.96560516710382,0 -102.2019768925518,17.96595491974618,0 -102.2023592801596,17.96600870676711,0 -102.2026079718506,17.96606901263769,0 -102.2028889561624,17.96619464186377,0 -102.2036185529388,17.96679457055492,0 -102.2042035510932,17.96698590735967,0 -102.2082781803301,17.96809260652531,0 -102.2107470246948,17.96880559432449,0 -102.2122198756939,17.96922093336045,0 -102.2118058760464,17.97023004533935,0 -102.2108140921458,17.97075720523524,0 -102.209897780911,17.97123000276135,0 -102.2087064568961,17.97180889776519,0 -102.2084428216035,17.97192954712056,0 -102.2084905993375,17.97204189902624,0 -102.2087844041134,17.97191089634637,0 -102.2101290354865,17.97126462854012,0 -102.211659865247,17.97048124288092,0 -102.2119129973164,17.97040276753301,0 -102.2119626493557,17.97048188831627,0 -102.2119730325593,17.97071084160146,0 -102.2119317742174,17.97175758382499,0 -102.2118258929085,17.97278227784524,0 -102.2119442220393,17.97306010827639,0 -102.2121903517441,17.97339491809253,0 -102.2122700220146,17.97369898939989,0 -102.2122127631106,17.97396757653538,0 -102.2120497044611,17.97523820380199,0 -102.2118126448946,17.97682600899826,0 -102.2116393552226,17.97696551824958,0 -102.2116105388168,17.97698627516042,0 -102.2118385765934,17.97726839422052,0 -102.2114039734579,17.97755420410899,0 -102.2113072166097,17.97763755425038,0 -102.2113374308608,17.97770061993612,0 -102.2113833459707,17.97777428075909,0 -102.2114618938251,17.97771853771198,0 -102.2115782427279,17.97764504755181,0 -102.2123502478125,17.97709974199182,0 -102.2129175382336,17.97666551830875,0 -102.2132918409001,17.97640357855543,0 -102.2143010021422,17.97568518893781,0 -102.2154474702048,17.97482797713357,0 -102.2168654962214,17.97382924211407,0 -102.2181029287049,17.97301513685017,0 -102.2189922365138,17.97198944417705,0 -102.2197904664331,17.97105022013115,0 -102.220046930417,17.96958174543383,0 -102.2201636801064,17.96942737686726,0 -102.2209604446939,17.96895877641862,0 -102.2212265413519,17.96878426075414,0 -102.2220800034655,17.96983935924754,0 -102.2232620708899,17.9713110425061,0 -102.2237905132243,17.97204271725826,0 -102.2241544039588,17.97177708818844,0 -102.2246550327777,17.97143053867694,0 -102.2250014479882,17.97128595839705,0 -102.2254613217613,17.97108687377632,0 -102.2257003322986,17.97095341150654,0 -102.2258936155008,17.97078545320413,0 -102.2260162983544,17.97064646385124,0 -102.2262717274334,17.97036910064663,0 -102.2265323622752,17.97009040882223,0 -102.2269364456067,17.97034605523013,0 -102.2272484287585,17.97050961897225,0 -102.2274550120046,17.97054234004156,0 -102.2277566859163,17.97059888452394,0 -102.2279702060019,17.97067388873288,0 -102.2282117336249,17.97076131812164,0 -102.2283071274623,17.97078461798673,0 -102.2282263005527,17.97096282861694,0 -102.2280791966547,17.97136263183837,0 -102.2279585324808,17.97166667693624,0 -102.2278272252393,17.97191088465243,0 -102.2277101151101,17.97201488743,0 -102.227523831625,17.97215296234214,0 -102.2271105403799,17.97233749581675,0 -102.2269384479643,17.97245544388514,0 -102.2267607805622,17.97266429566592,0 -102.2266018245457,17.97309899738356,0 -102.2265975551818,17.97349465137194,0 -102.2265857891389,17.97363657372249,0 -102.2265892378434,17.97387426943655,0 -102.2267892826921,17.97390636691394,0 -102.2269582092257,17.97391619526044,0 -102.2272843320302,17.97394786891129,0 -102.2285957397599,17.97399013315859,0 -102.2304572481654,17.974060558184,0 -102.2317801074892,17.974089368068,0 -102.232711493362,17.97411323256358,0 -102.2335908460479,17.97420642363705,0 -102.2341556117393,17.97446162662684,0 -102.2349701621882,17.9746887745761,0 -102.2343063668755,17.97729931393188,0 -102.2338817668162,17.97900461146825,0 -102.2339987251242,17.97896884659551,0 -102.2340517880173,17.97888519770912,0 -102.2340962397137,17.97876829682249,0 -102.2345731060288,17.97679786476498,0 -102.2353778526975,17.97695903385363,0 -102.2363271022973,17.97716845040146,0 -102.2370719348614,17.97729575616765,0 -102.2373888229193,17.97733434973097,0 -102.2376317648051,17.97729503545803,0 -102.2380476809361,17.97714053480435,0 -102.2383138564417,17.97705774523813,0 -102.238516539084,17.97700144257401,0 -102.2387057587837,17.97693562422766,0 -102.238753120162,17.97689464937227,0 -102.2386873536046,17.97682578442556,0 -102.2383859163643,17.97667151705835,0 -102.2382931763673,17.97669205824686,0 -102.2383275739603,17.97680884986605,0 -102.2383773115783,17.97691632321196,0 -102.2384106973089,17.97700441802446,0 -102.237693157159,17.97728366846522,0 -102.2374026091676,17.9773394951151,0 -102.2368547630515,17.97723636476903,0 -102.2352079590337,17.97687480848316,0 -102.2351826143554,17.97708088179078,0 
			</coordinates>
		</LineString>
	</Placemark>
</Document>
</kml>
<?earth data="CrE4Cq44CoY4ChQwRDk4QkZCNDMzNDI0RUM4MjYyORL0NhJOChIZTm3pj5z4MUAhCoE2ofWOWcARkTqFnHS1OUAYASF2BsHVKS52QCkAAAAAAAAAADGAoZysfxHDQEEAAAAAAIBBQEkAAAAAAAAAAFABGAEiDkNvbWJpIGFtYXJpbGxhQAJKjTYSijYShzYKHQoSGRByNEZT-TFAIdMcD5PkjlnAKQAAAAAAAAAACh0KEhm53tanSfkxQCHsE0Jvgo5ZwCkAAAAAAAAAAAodChIZdpJF-H74MUAhuCtUP56OWcApAAAAAAAAAAAKHQoSGRZwFRBP-DFAIQNu5fh_jlnAKQAAAAAAAAAACh0KEhkhNPrWy_gxQCE2J5SKVI5ZwCkAAAAAAAAAAAodChIZroqbgvb3MUAhW9igPyqOWcApAAAAAAAAAAAKHQoSGUOQGJMt-DFAIZ4gryYUjlnAKQAAAAAAAAAACh0KEhncCbCaOfgxQCFV2f7hEo5ZwCkAAAAAAAAAAAodChIZOtYbaYX4MUAh-_fUnhCOWcApAAAAAAAAAAAKHQoSGdJZ63SX-DFAIQGrcyUPjlnAKQAAAAAAAAAACh0KEhnztmf0rfgxQCFeonuCCo5ZwCkAAAAAAAAAAAodChIZDWmHgt34MUAhqubbEACOWcApAAAAAAAAAAAKHQoSGcW1MTEP-TFAIcoQDqf1jVnAKQAAAAAAAAAACh0KEhngOWs5MPkxQCH7FUyl6Y1ZwCkAAAAAAAAAAAodChIZwz-Zvq35MUAh2IKYybuNWcApAAAAAAAAAAAKHQoSGQLAZfUs-jFAIYlyjoKPjVnAKQAAAAAAAAAACh0KEhk5_fDeHPoxQCGanRogjI1ZwCkAAAAAAAAAAAodChIZdk6YqhT6MUAhd9Mi0I6NWcApAAAAAAAAAAAKHQoSGQF6dSVT-TFAIVoj9uuVjVnAKQAAAAAAAAAACh0KEhn_nMiiQ_kxQCEgdhaRlo1ZwCkAAAAAAAAAAAodChIZsKhbCS_5MUAhOlxzF5WNWcApAAAAAAAAAAAKHQoSGYKNo0cZ-TFAIQdT_vmQjVnAKQAAAAAAAAAACh0KEhlrI2aCCvkxQCFA88scj41ZwCkAAAAAAAAAAAodChIZMQlFab74MUAhjtHVUZGNWcApAAAAAAAAAAAKHQoSGY8hFcd--DFAIRpz6g-SjVnAKQAAAAAAAAAACh0KEhmslTijbPgxQCEW8ZJhkY1ZwCkAAAAAAAAAAAodChIZl3Uyrmb4MUAhuKHoqo-NWcApAAAAAAAAAAAKHQoSGQsmPRRX-DFAIZE7kiWSjVnAKQAAAAAAAAAACh0KEhlZ2QSwS_gxQCHFAVtFk41ZwCkAAAAAAAAAAAodChIZRCbiyzv4MUAhCKEx0JSNWcApAAAAAAAAAAAKHQoSGXP09fUj-DFAIYuVzruWjVnAKQAAAAAAAAAACh0KEhkX-sppFfgxQCEGQxqtl41ZwCkAAAAAAAAAAAodChIZIIVJB6j3MUAh7_3VJTONWcApAAAAAAAAAAAKHQoSGTOwZUR19zFAIeIcXosHjVnAKQAAAAAAAAAACh0KEhmW6QLYP_cxQCHM8Olz-YxZwCkAAAAAAAAAAAodChIZ0pmQZi33MUAhxtGLvfuMWcApAAAAAAAAAAAKHQoSGYTX6b4j9zFAITLNTGT8jFnAKQAAAAAAAAAACh0KEhnR24ojGvcxQCGBZ1jE_IxZwCkAAAAAAAAAAAodChIZi5cSPQr3MUAhzpbSzf2MWcApAAAAAAAAAAAKHQoSGSztMyUA9zFAIb5dN3D_jFnAKQAAAAAAAAAACh0KEhkMIaQ29PYxQCGcArfbA41ZwCkAAAAAAAAAAAodChIZ_VDpQu_2MUAhbTDF0QWNWcApAAAAAAAAAAAKHQoSGR4-lejp9jFAIbuDhu4HjVnAKQAAAAAAAAAACh0KEhlUjh2w4_YxQCH5qxLMCI1ZwCkAAAAAAAAAAAodChIZfNgOnNz2MUAhWZQlWAqNWcApAAAAAAAAAAAKHQoSGSwsGU3U9jFAIRKO6IELjVnAKQAAAAAAAAAACh0KEhmRGQvrj_YxQCFI5ZQEEo1ZwCkAAAAAAAAAAAodChIZ0TcbTz_2MUAhNUjH1BmNWcApAAAAAAAAAAAKHQoSGWRpUaEq9jFAIZHQjO0ZjVnAKQAAAAAAAAAACh0KEhlOfv5XIvYxQCH9ZzzbGI1ZwCkAAAAAAAAAAAodChIZCIbhOiD2MUAhodLbUheNWcApAAAAAAAAAAAKHQoSGcsnQWwf9jFAIUod3JsTjVnAKQAAAAAAAAAACh0KEhnM4tFXIPYxQCHOR3V-Do1ZwCkAAAAAAAAAAAodChIZtx6OoCH2MUAhDoJ3cP-MWcApAAAAAAAAAAAKHQoSGVhkfO8h9jFAIVji69DdjFnAKQAAAAAAAAAACh0KEhmPaa0lHvYxQCEMrRjZ04xZwCkAAAAAAAAAAAodChIZWy3ewDj2MUAhu617x8qMWcApAAAAAAAAAAAKHQoSGTB61h809jFAIf60J2LJjFnAKQAAAAAAAAAACh0KEhkf2cdB1vUxQCG7nLGbt4xZwCkAAAAAAAAAAAodChIZFEBlmZz1MUAhDhM8V6yMWcApAAAAAAAAAAAKHQoSGYkx0f5V9TFAIWiyb4WejFnAKQAAAAAAAAAACh0KEhkmbfuFKvUxQCEpVKlMloxZwCkAAAAAAAAAAAodChIZCinnOC_1MUAht3oXd5SMWcApAAAAAAAAAAAKHQoSGb-UJOEi9TFAIWCgAUKSjFnAKQAAAAAAAAAACh0KEhmR6T53DfUxQCFhT2XijYxZwCkAAAAAAAAAAAodChIZrthtdL_0MUAhJBNURn-MWcApAAAAAAAAAAAKHQoSGV2aAPyC9DFAIbQuaKpzjFnAKQAAAAAAAAAACh0KEhmdrmz5R_QxQCEpnIRNaIxZwCkAAAAAAAAAAAodChIZ34E_fgf0MUAhlUjaXFyMWcApAAAAAAAAAAAKHQoSGSAApxcD9DFAIbVgKHRbjFnAKQAAAAAAAAAACh0KEhne4Z4jDPQxQCHMOt5aV4xZwCkAAAAAAAAAAAodChIZPIvyVhf0MUAhJs2naVKMWcApAAAAAAAAAAAKHQoSGXzw0X4j9DFAIS_-VLlMjFnAKQAAAAAAAAAACh0KEhnsptPBKfQxQCGKSgUkSoxZwCkAAAAAAAAAAAodChIZd2KkuH_0MUAhf41EA0SMWcApAAAAAAAAAAAKHQoSGUPb4HQK9TFAIckksLk5jFnAKQAAAAAAAAAACh0KEhm7E3L0ovUxQCHjroeVLoxZwCkAAAAAAAAAAAodChIZoZwDO5_1MUAhQp4zZTKMWcApAAAAAAAAAAAKHQoSGbkmUDeb9TFAIT7qMAM0jFnAKQAAAAAAAAAACh0KEhkn3R6nmPUxQCEEGA7-NIxZwCkAAAAAAAAAAAodChIZ9IzSnav1MUAhMJFUmjiMWcApAAAAAAAAAAAKHQoSGYaNWOze9TFAIfTFIh5CjFnAKQAAAAAAAAAACh0KEhkC4xuCQ_YxQCE27pekVYxZwCkAAAAAAAAAAAodChIZ90nkXKP2MUAhfDUFzGeMWcApAAAAAAAAAAAKHQoSGXtH0tG49jFAIUhaDYqJjFnAKQAAAAAAAAAACh0KEhlcBl87wPYxQCH_1vyQmoxZwCkAAAAAAAAAAAodChIZJ8ixYrf2MUAhIKghbKGMWcApAAAAAAAAAAAKHQoSGX5wzfOn9jFAITASgq6mjFnAKQAAAAAAAAAACh0KEhk_XxQQnfYxQCHUhFjlqYxZwCkAAAAAAAAAAAodChIZs5cV2af2MUAhdaZfcauMWcApAAAAAAAAAAAKHQoSGQ3Z_8K-9jFAIYDfTu6rjFnAKQAAAAAAAAAACh0KEhkiu_rz7PYxQCHhN5Rmq4xZwCkAAAAAAAAAAAodChIZdtSJWgb3MUAhk1DkBauMWcApAAAAAAAAAAAKHQoSGYCosxcd9zFAIWEkW8qzjFnAKQAAAAAAAAAACh0KEhmtEQ9uJ_cxQCHxANwQuIxZwCkAAAAAAAAAAAodChIZiZEn-i33MUAhcFVh9r2MWcApAAAAAAAAAAAKHQoSGY5QPist9zFAIZaaE83AjFnAKQAAAAAAAAAACh0KEhk8LH4jKfcxQCHBgs88xYxZwCkAAAAAAAAAAAodChIZ0DPQgSH3MUAhFlYjl8qMWcApAAAAAAAAAAAKHQoSGXZsAtcX9zFAIZa0nLrSjFnAKQAAAAAAAAAACh0KEhnJcVmNFvcxQCG1_qHz2oxZwCkAAAAAAAAAAAodChIZigFl1xv3MUAhKskakOOMWcApAAAAAAAAAAAKHQoSGT6PdeYx9zFAIfwRZTvmjFnAKQAAAAAAAAAACh0KEhlduFXSSPcxQCGyA30w7YxZwCkAAAAAAAAAAAodChIZSje7WEz3MUAh95RWdPOMWcApAAAAAAAAAAAKHQoSGTj1fkxQ9zFAIXhAbYf3jFnAKQAAAAAAAAAACh0KEhkUYDSIWPcxQCH82_Uh_IxZwCkAAAAAAAAAAAodChIZ13tW2X_3MUAhy24cFgiNWcApAAAAAAAAAAAKHQoSGXzNb2OM9zFAIQVrxasRjVnAKQAAAAAAAAAACh0KEhmOhsTq1PcxQCE8PwFuVI1ZwCkAAAAAAAAAAAodChIZOM63pAP4MUAhybIW4XyNWcApAAAAAAAAAAAKHQoSGbhh89we-DFAIalqrAKVjVnAKQAAAAAAAAAACh0KEhk_VAr_YPgxQCEQrjs6jo1ZwCkAAAAAAAAAAAodChIZe9dQi4P4MUAhV9Nj-n2NWcApAAAAAAAAAAAKHQoSGQXBioei-DFAIQMhGvdujVnAKQAAAAAAAAAACh0KEhkB3cl3yPgxQCFNtVNyW41ZwCkAAAAAAAAAAAodChIZH-byX9D4MUAh4nePIFeNWcApAAAAAAAAAAAKHQoSGdGo5rzX-DFAIWRr9OhXjVnAKQAAAAAAAAAACh0KEhkIbwonz_gxQCE95UK5XI1ZwCkAAAAAAAAAAAodChIZZVd3zKT4MUAhstYNwXKNWcApAAAAAAAAAAAKHQoSGROOb3Vx-DFAISLH0dWLjVnAKQAAAAAAAAAACh0KEhmOgNZQbPgxQCGSRIj7j41ZwCkAAAAAAAAAAAodChIZv61DgHH4MUAhML3Jy5CNWcApAAAAAAAAAAAKHQoSGQiNdoGA-DFAIXyeVveQjVnAKQAAAAAAAAAACh0KEhkVK-IaxfgxQCHMz0lKkI1ZwCkAAAAAAAAAAAodChIZRHllQgj5MUAhP58wjo6NWcApAAAAAAAAAAAKHQoSGdwWnnca-TFAIQyPf36QjVnAKQAAAAAAAAAACh0KEhnOTMtoMPkxQCEiUdeGlI1ZwCkAAAAAAAAAAAodChIZ7J5DVkT5MUAhVp4A1ZWNWcApAAAAAAAAAAAKHQoSGXWVaPBV-TFAIaZW1-SUjVnAKQAAAAAAAAAACh0KEhmrI_81qfkxQCFfcuw4ko1ZwCkAAAAAAAAAAAodChIZnYfyRBH6MUAh5KyfVo6NWcApAAAAAAAAAAAKHQoSGZ8zhmka-jFAIZROy3-LjVnAKQAAAAAAAAAACh0KEhlxdMTFG_oxQCFE7e0Gi41ZwCkAAAAAAAAAAAodChIZcJfwQi76MUAh-59jw46NWcApAAAAAAAAAAAKHQoSGSe3CP5A-jFAIcIPiKSHjVnAKQAAAAAAAAAACh0KEhnH2Gp0RvoxQCHYL7QOho1ZwCkAAAAAAAAAAAodChIZkOd7lkr6MUAh7X1ujYaNWcApAAAAAAAAAAAKHQoSGfC6TmpP-jFAIT13A06HjVnAKQAAAAAAAAAACh0KEhl4KhjDS_oxQCENlXeXiI1ZwCkAAAAAAAAAAAodChIZ11Qi8kb6MUAh70N4f4qNWcApAAAAAAAAAAAKHQoSGfDIbDUj-jFAIbtpfiWXjVnAKQAAAAAAAAAACh0KEhlYRFzABvoxQCFP3eFwoI1ZwCkAAAAAAAAAAAodChIZy5e9lfX5MUAh2UrSkqaNWcApAAAAAAAAAAAKHQoSGfOtKYHG-TFAIdzsjBu3jVnAKQAAAAAAAAAACh0KEhm4A4lTjvkxQCFIoi_kyY1ZwCkAAAAAAAAAAAodChIZtcSK30z5MUAhtXnRH-GNWcApAAAAAAAAAAAKHQoSGdFIH4UX-TFAIcB8_GX1jVnAKQAAAAAAAAAACh0KEhkyzNpM1PgxQCHjeQP4A45ZwCkAAAAAAAAAAAodChIZpDxKv5b4MUAhY1MIDBGOWcApAAAAAAAAAAAKHQoSGdlvX4I2-DFAIXpuuD8VjlnAKQAAAAAAAAAACh0KEhnxfX9kLPgxQCG5dGcpF45ZwCkAAAAAAAAAAAodChIZ4uOvrg34MUAh4OpGNySOWcApAAAAAAAAAAAKHQoSGY7RzD4C-DFAIUcHXpMojlnAKQAAAAAAAAAACh0KEhl-V2pkR_gxQCG0_guPNo5ZwCkAAAAAAAAAAAodChIZr84p16f4MUAhMzr_7EmOWcApAAAAAAAAAAAKHQoSGW_woMrX-DFAIQbdcZVSjlnAKQAAAAAAAAAACh0KEhl-xRxixvgxQCF3kLaLWI5ZwCkAAAAAAAAAAAodChIZ__P5q6_4MUAhXqqAv2COWcApAAAAAAAAAAAKHQoSGRxhUjKm-DFAIVwqeWxmjlnAKQAAAAAAAAAACh0KEhm1cTwmmfgxQCGQ3lL1bY5ZwCkAAAAAAAAAAAodChIZOFwcZ5D4MUAh0HrO33GOWcApAAAAAAAAAAAKHQoSGb3xPGWF-DFAIeC8fgp1jlnAKQAAAAAAAAAACh0KEhkZOGJJfPgxQCHlchANd45ZwCkAAAAAAAAAAAodChIZgVMAHGr4MUAhfVVpPHuOWcApAAAAAAAAAAAKHQoSGQUOVNhX-DFAIUrdl4F_jlnAKQAAAAAAAAAACh0KEhkZBF2ZaPgxQCGvCXEgho5ZwCkAAAAAAAAAAAodChIZcfCBUXP4MUAhcmX-PIuOWcApAAAAAAAAAAAKHQoSGaHceXZ1-DFAIbx3d5-OjlnAKQAAAAAAAAAACh0KEhl8kCIrefgxQCEvXceQk45ZwCkAAAAAAAAAAAodChIZWjB_FX74MUAhaM9YEJeOWcApAAAAAAAAAAAKHQoSGeWNUdCD-DFAIeAeYwWbjlnAKQAAAAAAAAAACh0KEhl_tjlXhfgxQCE9eX-VnI5ZwCkAAAAAAAAAAAodChIZmYoaBZH4MUAhgj18QpuOWcApAAAAAAAAAAAKHQoSGWRNsDir-DFAIe2hfNmYjlnAKQAAAAAAAAAACh0KEhncDbglv_gxQCFZdmLflo5ZwCkAAAAAAAAAAAodChIZZzXYJs_4MUAhpGKkuJSOWcApAAAAAAAAAAAKHQoSGau8uPfV-DFAIXJXcs2SjlnAKQAAAAAAAAAACh0KEhkS-DsE3_gxQCH4-B3Aj45ZwCkAAAAAAAAAAAodChIZHDUxHOv4MUAhjOCl-oiOWcApAAAAAAAAAAAKHQoSGclNCNfy-DFAIYwN1yiGjlnAKQAAAAAAAAAACh0KEhk73_uGAPkxQCHsIaY_g45ZwCkAAAAAAAAAAAodChIZZIgRBB35MUAh0mjwpICOWcApAAAAAAAAAAAKHQoSGTJ5CvI2-TFAIQM3CJOAjlnAKQAAAAAAAAAACh0KEhncUxo_QPkxQCHBha5hgI5ZwCkAAAAAAAAAAAodChIZV6X50k_5MUAhbIolcICOWcApAAAAAAAAAAAKHQoSGfZCe-1R-TFAIb4PMreDjlnAKQAAAAAAAAAACh0KEhk2sF-SUvkxQCG4i7l7ho5ZwCkAAAAAAAAAAAodChIZnfvEpVT5MUAhoT2V04uOWcApAAAAAAAAAAAKHQoSGfeK2GpX-TFAIYeRBlChjlnAKQAAAAAAAAAACh0KEhlLuWEIXPkxQCHH_8HPv45ZwCkAAAAAAAAAAAodChIZvju76135MUAh4WE7fNWOWcApAAAAAAAAAAAKHQoSGR92HHxf-TFAISpZv77kjlnAKQAAAAAAAAAACh0KEhkCE5mXZfkxQCHwGgUn845ZwCkAAAAAAAAAAAodChIZupExUXb5MUAhFabRZ_yOWcApAAAAAAAAAAAKHQoSGSmVGjSF-TFAIZeISsAJj1nAKQAAAAAAAAAACh0KEhmbva9JMPoxQCFkviHg_o5ZwCkAAAAAAAAAAAodChIZq-PUC6D6MUAhz-Y66_eOWcApAAAAAAAAAAAKHQoSGTruy7Od-jFAIbLtydX5jlnAKQAAAAAAAAAACh0KEhn8smY4mPoxQCG1xlm0-o5ZwCkAAAAAAAAAAAodChIZ1jYhj5D6MUAh9mvLbvuOWcApAAAAAAAAAAAKHQoSGd73w2wP-jFAIY266j4Dj1nAKQAAAAAAAAAACh0KEhnf7rv8GfoxQCFz4kRuEI9ZwCkAAAAAAAAAAAodChIZRCgptif6MUAhn-G1-x-PWcApAAAAAAAAAAAKHQoSGXlC_w0w-jFAId_Bwy8sj1nAKQAAAAAAAAAACh0KEhkaWn2VMvoxQCH0t-NgMY9ZwCkAAAAAAAAAAAodChIZ3NXnATD6MUAhCZXcWzWPWcApAAAAAAAAAAAKHQoSGaOU0OEl-jFAIZYgVyw8j1nAKQAAAAAAAAAACh0KEhnsGdZ0IPoxQCF15sKIQI9ZwCkAAAAAAAAAAAodChIZDAA8xBz6MUAh8brf2kOPWcApAAAAAAAAAAAKHQoSGepa_HMY-jFAIfTVhPRGj1nAKQAAAAAAAAAACh0KEhn4sIrEFfoxQCF5uiq7R49ZwCkAAAAAAAAAAAodChIZUP8tQRH6MUAh12xSp0aPWcApAAAAAAAAAAAKHQoSGUmzACUH-jFAISOnALdBj1nAKQAAAAAAAAAACh0KEhnmbqB9CPoxQCHf1gUyQI9ZwCkAAAAAAAAAAAodChIZOZ4QJRD6MUAhQvlLwkCPWcApAAAAAAAAAAAKHQoSGbsfKzAX-jFAIZdV6ZJBj1nAKQAAAAAAAAAACh0KEhlsdif2HPoxQCFS_fAeQo9ZwCkAAAAAAAAAAAodChIZGPkyQy_6MUAhxh5cXTaPWcApAAAAAAAAAAAKHQoSGceb0Osy-jFAIQaXtpoxj1nAKQAAAAAAAAAACh0KEhkaJZMpLPoxQCFPTeGgKI9ZwCkAAAAAAAAAAAodChIZsLiqdxT6MUAhwvOupQ2PWcApAAAAAAAAAAAKHQoSGZjWAPkh-jFAIaRPYTsNj1nAKQAAAAAAAAAAEAIYACAAMncKJAogCgMI0A8aBwjS7WUQ_wEhAAAAAAAA8D8pAAAAAAAAAAAYABIPCggIrYDvBxD_ARCgHxgAGhoKBwj___8HEEASCAitgO8HEP8BGKAfIAAoACIJCAESBQj___8HKhcIARIICP___wcQ_wEZAAAAAAAA8D8gABIAGiExTE1xVGIyMVp4UDRHRnhqa3RENlB0UDlHYVNmZTd4d3M"?>
